OBJECT_NAME,OBJECT_ID,EPOCH,MEAN_MOTION,ECCENTRICITY,INCLINATION,RA_OF_ASC_NODE,ARG_OF_PERICENTER,MEAN_ANOMALY,EPHEMERIS_TYPE,CLASSIFICATION_TYPE,NORAD_CAT_ID,ELEMENT_SET_NO,REV_AT_EPOCH,BSTAR,MEAN_MOTION_DOT,MEAN_MOTION_DDOT
SAUDISAT 1C (SO-50),2002-058C,2026-06-27T21:02:49.685280,14.83068196,.00750105,64.5520,95.9116,260.4752,98.7871,0,U,27607,999,26604,.12482399E-3,.912E-5,0
SAUDISAT 2,2004-025F,2026-06-27T22:48:45.979488,14.56689610,.00234337,98.5509,179.2107,263.4420,96.4110,0,U,28371,999,16731,.64674665E-4,.24E-5,0
SAUDISAT 3,2007-012B,2026-06-27T20:48:30.196224,14.71431312,.00143473,98.1459,129.2747,188.3284,171.7687,0,U,31118,999,2931,.46916077E-4,.24E-5,0
PISAT,2016-059B,2026-06-27T23:23:03.520320,14.69001004,.00293021,97.8179,178.9636,168.1157,192.0747,0,U,41784,999,52132,.16113235E-3,.903E-5,0
FLYING LAPTOP,2017-042G,2026-06-27T22:00:44.496288,15.01214941,.00199761,97.4727,334.0401,87.2955,273.0556,0,U,42831,999,48806,.3758917E-3,.4788E-4,0
SALSAT,2020-068K,2026-06-27T17:47:39.077664,15.29943751,.00078426,97.8846,182.4496,262.7765,97.2583,0,U,46495,999,31697,.25510061E-3,.7317E-4,0
