SAUDISAT 1C (SO-50)     
1 27607U 02058C   26178.87696395  .00000912  00000+0  12482-3 0  9995
2 27607  64.5520  95.9116 0075010 260.4752  98.7871 14.83068196266040
SAUDISAT 2              
1 28371U 04025F   26178.95053217  .00000240  00000+0  64675-4 0  9995
2 28371  98.5509 179.2107 0023433 263.4420  96.4110 14.56689610167317
SAUDISAT 3              
1 31118U 07012B   26178.86701616  .00000240  00000+0  46916-4 0  9998
2 31118  98.1459 129.2747 0014347 188.3284 171.7687 14.71431312 29316
PISAT                   
1 41784U 16059B   26178.97434630  .00000903  00000+0  16113-3 0  9991
2 41784  97.8179 178.9636 0029302 168.1157 192.0747 14.69001004521320
FLYING LAPTOP           
1 42831U 17042G   26178.91718167  .00004788  00000+0  37589-3 0  9997
2 42831  97.4727 334.0401 0019976  87.2955 273.0556 15.01214941488061
SALSAT                  
1 46495U 20068K   26178.74142451  .00007317  00000+0  25510-3 0  9999
2 46495  97.8846 182.4496 0007842 262.7765  97.2583 15.29943751316978
